ASTERIA                 
1 43020U 98067NH  18290.77259904  .00010495  00000-0  12296-3 0  9994
2 43020  51.6409 117.3401 0001999 265.5615  94.5151 15.62151621 51631
DELLINGR (RBLE)         
1 43021U 98067NJ  18290.74712204  .00007542  00000-0  10071-3 0  9997
2 43021  51.6387 120.8707 0001883 250.5107 109.5682 15.59176983 51581
OSIRIS-3U               
1 43027U 98067NL  18290.71529758  .00051484  00000-0  37351-3 0  9994
2 43027  51.6347 107.0765 0003761 247.9562 112.1037 15.72868540 51649
AEROCUBE 7B             
1 43042U 17071F   18290.11622787  .00003162  00000-0  88973-4 0  9994
2 43042  51.6378 167.2021 0004723 356.8599   3.2355 15.39612250 48380
AEROCUBE 7C             
1 43043U 17071G   18290.05124788  .00003076  00000-0  86823-4 0  9992
2 43043  51.6381 167.5257 0004852 358.1390   1.9576 15.39615552 48340
CHEFSAT                 
1 43044U 17071H   18290.03633234  .00005347  00000-0  13713-3 0  9992
2 43044  51.6385 165.9713 0004673 358.1475   1.9492 15.41013854 48368
ASGARDIA 1              
1 43049U 17071N   18290.02222201  .00003354  00000-0  93423-4 0  9997
2 43049  51.6384 167.3429 0002654  25.6628 334.4487 15.39728506 48334
ISARA                   
1 43050U 17071P   18290.05419586  .00005620  00000-0  14487-3 0  9996
2 43050  51.6380 166.0762 0002444  24.9913 335.1190 15.40752048 48355
FAUNA                   
1 43052U 17071R   18290.51783884  .00003411  00000-0  94292-4 0  9993
2 43052  51.6384 164.6646 0002533  24.3095 335.8009 15.39909279 48411
CORVUS BC3              
1 43118U 18004H   18290.86013151  .00000881  00000-0  41122-4 0  9996
2 43118  97.5200 353.6139 0011384  33.8006 326.3953 15.22448340 42379
MICROMAS-2A             
1 43131U 18004W   18290.17586975  .00002216  00000-0  96576-4 0  9991
2 43131  97.5213 353.1745 0010564  39.5481 320.6524 15.23230144 42288
GOMX4-B                 
1 43196U 18015E   18290.81870132  .00002344  00000-0  10000-3 0  9995
2 43196  97.3622  57.3603 0020034  86.9025 274.2570 15.23729608 39201
GOMX4-A                 
1 43197U 18015F   18290.76794374  .00000624  00000-0  28698-4 0  9995
2 43197  97.3630  57.3117 0020984  86.7603  19.2982 15.23796902 39200
1KUNS-PF                
1 43466U 98067NP  18290.83734746  .00012415  00000-0  16638-3 0  9995
2 43466  51.6388 124.4632 0000855 176.7438 183.3560 15.58387846 24807
UBAKUSAT                
1 43467U 98067NQ  18290.80385682  .00009001  00000-0  12612-3 0  9999
2 43467  51.6385 124.9929 0002585 215.0849 144.9973 15.57594779 24809
BATSU-CS1 (IRAZU)       
1 43468U 98067NR  18290.80698649  .00015570  00000-0  20207-3 0  9997
2 43468  51.6386 124.2612 0000983 169.1567 190.9447 15.59023290124792
CUBERRT                 
1 43546U 98067NU  18289.97978754  .00011913  00000-0  17167-3 0  9996
2 43546  51.6386 130.7285 0005241 288.1105  71.9315 15.56464038 14784
TEMPEST-D               
1 43547U 98067NV  18290.77130862  .00006518  00000-0  10050-3 0  9996
2 43547  51.6386 127.0132 0005341 295.1533  64.8904 15.55511536 14587
RAINCUBE                
1 43548U 98067NW  18290.82585672  .00008415  00000-0  12504-3 0  9990
2 43548  51.6385 126.6280 0005225 301.7715  58.2767 15.56086110 15045
HALOSAT                 
1 43549U 98067NX  18290.76204350  .00008862  00000-0  13133-3 0  9990
2 43549  51.6385 126.9521 0005245 303.8157  56.2335 15.56081036 14592
ENDUROSAT ONE           
1 43551U 98067NZ  18290.48299476  .00010921  00000-0  15732-3 0  9991
2 43551  51.6381 128.0880 0005653 309.2950  50.7540 15.56575274 14966
EQUISAT                 
1 43552U 98067PA  18289.97450478  .00011047  00000-0  16039-3 0  9996
2 43552  51.6383 130.6934 0005913 308.2188  51.8271 15.56345011 14843
AEROCUBE 12A            
1 43556U 18046C   18290.48853197  .00001971  00000-0  84067-4 0  9994
2 43556  51.6415 147.3523 0007900 277.1463  82.8618 15.27916130 14214
AEROCUBE 12B            
1 43557U 18046D   18290.48921827  .00001721  00000-0  75112-4 0  9995
2 43557  51.6414 147.3564 0007912 277.2115  82.7965 15.27881960 14167
UITMSAT-1               
1 43589U 98067PD  18290.39747582  .00009223  00000-0  13710-3 0  9995
2 43589  51.6380 129.0148 0005255 319.7482  40.3120 15.55937937 10645
MAYA-1                  
1 43590U 98067PE  18290.84583041  .00009305  00000-0  13807-3 0  9993
2 43590  51.6381 126.7598 0005363 322.6414  37.4204 15.55974486 10649
BHUTAN-1                
1 43591U 98067PF  18290.52303346  .00009669  00000-0  14302-3 0  9991
2 43591  51.6381 128.3540 0005426 322.6597  37.4016 15.56008772 10599
SIRIUSSAT-1             
1 43595U 98067PG  18290.79984906  .00009088  00000-0  13709-3 0  9996
2 43595  51.6382 127.1981 0003179 264.6224  95.4404 15.55558800  9814
SIRIUSSAT-2             
1 43596U 98067PH  18290.80549071  .00009029  00000-0  13698-3 0  9991
2 43596  51.6391 127.2422 0003794 269.9169  90.1387 15.55410360  9815
TANUSHA-3               
1 43597U 98067PJ  18290.80143789  .00011000  00000-0  16396-3 0  9998
2 43597  51.6371 127.2035 0003149 282.3421  77.7217 15.55636691  9818
SURFSAT                 
1 43614U 18070B   18290.50271362  .00003536  00000-0  99652-4 0  9992
2 43614  93.0262 262.7314 0016757 156.5446 203.6572 15.36346791  4907
CP-7 (DAVE)             
1 43615U 18070C   18290.89332380  .00003293  00000-0  92793-4 0  9992
2 43615  93.0261 262.8923 0016743 154.8593 205.3479 15.36355145  4967
ELFIN-B                 
1 43616U 18070D   18290.37094603 -.00000006  00000-0  00000+0 0  9994
2 43616  93.0251 262.6590 0020664 164.7714 195.4529 15.36415594  4888
ELFIN-A                 
1 43617U 18070E   18290.63095461 -.00000006  00000-0  00000+0 0  9997
2 43617  93.0299 262.7984 0018942 157.7940 202.4199 15.36455006  4927
